NORAD_CAT_ID,OBJECT_NAME,OBJECT_TYPE,EPOCH,MEAN_MOTION,ECCENTRICITY,INCLINATION,RA_OF_ASC_NODE,ARG_OF_PERICENTER,MEAN_ANOMALY,BSTAR,MEAN_MOTION_DOT,MEAN_MOTION_DDOT,TLE_LINE0,TLE_LINE1,TLE_LINE2,SEMIMAJOR_AXIS,PERIOD,APOGEE,PERIGEE,DECAYED
52353.0,STARLINK-3807,PAYLOAD,2022-08-08 22:00:00,15.08885053,0.0002008999999999,53.2189,314.4275,41.7737,293.534,-0.0040494,-0.00064241,0.0,0 STARLINK-3807,1 52353U 22045Y   22220.91667824 -.00064241  00000-0 -40494-2 0  9994,2 52353  53.2189 314.4275 0002009  41.7737 293.5340 15.08885053  1307,6917.743,95.435,540.997,538.2180000000002,0.0
52353.0,STARLINK-3807,PAYLOAD,2022-08-09 14:00:01,15.08834442,0.0001985,53.2192,311.4358,37.7034,320.8045,-0.0027936999999999,-0.0004447,0.0,0 STARLINK-3807,1 52353U 22045Y   22221.58334491 -.00044470  00000-0 -27937-2 0  9998,2 52353  53.2192 311.4358 0001985  37.7034 320.8045 15.08834442 18295,6917.897,95.438,541.136,538.389,0.0
52353.0,STARLINK-3807,PAYLOAD,2022-08-09 22:00:00,15.08811853,0.0001854,53.2193,309.9386,34.2897,335.7852,-0.0032222,-0.00051167,0.0,0 STARLINK-3807,1 52353U 22045Y   22221.91667824 -.00051167  00000-0 -32222-2 0  9998,2 52353  53.2193 309.9386 0001854  34.2897 335.7852 15.08811853  1309,6917.965999999999,95.439,541.114,538.549,0.0
52353.0,STARLINK-3807,PAYLOAD,2022-08-10 14:00:01,15.08789126,0.0002036,53.2195,306.9474,36.213,356.9426,0.003582,0.00057102,0.0,0 STARLINK-3807,1 52353U 22045Y   22222.58334491  .00057102  00000-0  35820-2 0  9993,2 52353  53.2195 306.9474 0002036  36.2130 356.9426 15.08789126  1300,6918.036,95.441,541.309,538.492,0.0
52353.0,STARLINK-3807,PAYLOAD,2022-08-10 17:07:18,15.08802008,0.0002044999999999,53.2194,306.3637,34.5979,345.4365,0.0035397,0.00056439,0.0,0 STARLINK-3807,1 52353U 22045Y   22222.71341435  .00056439  00000-0  35397-2 0  9995,2 52353  53.2194 306.3637 0002045  34.5979 345.4365 15.08802008 18472,6917.996999999999,95.44,541.276,538.447,0.0
52353.0,STARLINK-3807,PAYLOAD,2022-08-10 22:00:00,15.08845076,0.0001968,53.2195,305.4501,37.2873,7.4218,-0.0015344,-0.00024629,0.0,0 STARLINK-3807,1 52353U 22045Y   22222.91667824 -.00024629  00000-0 -15344-2 0  9998,2 52353  53.2195 305.4501 0001968  37.2873   7.4218 15.08845076  1307,6917.865,95.437,541.091,538.368,0.0
52353.0,STARLINK-3807,PAYLOAD,2022-08-11 14:00:01,15.08832029,0.0002105,53.2197,302.4589,37.2684,30.6254,0.0013097999999999,0.00020615,0.0,0 STARLINK-3807,1 52353U 22045Y   22223.58334491  .00020615  00000-0  13098-2 0  9996,2 52353  53.2197 302.4589 0002105  37.2684  30.6254 15.08832029  1308,6917.905,95.438,541.226,538.314,0.0
52353.0,STARLINK-3807,PAYLOAD,2022-08-11 22:00:00,15.08862327,0.0001983,53.2195,300.9615,38.1047,41.385,-0.0012618,-0.00020326,0.0,0 STARLINK-3807,1 52353U 22045Y   22223.91667824 -.00020326  00000-0 -12618-2 0  9990,2 52353  53.2195 300.9615 0001983  38.1047  41.3850 15.08862327 18656,6917.812,95.436,541.049,538.305,0.0
52353.0,STARLINK-3807,PAYLOAD,2022-08-12 14:00:01,15.088308499999998,0.0002059,53.2193,297.9702,35.0864,67.6519,0.0017128,0.0002706999999999,0.0,0 STARLINK-3807,1 52353U 22045Y   22224.58334491  .00027070  00000-0  17128-2 0  9997,2 52353  53.2193 297.9702 0002059  35.0864  67.6519 15.08830850  1307,6917.908,95.438,541.198,538.349,0.0
52353.0,STARLINK-3807,PAYLOAD,2022-08-12 22:00:01,15.08866398,0.0001945,53.2191,296.4726,37.4161,76.9766,-0.0037110999999999,-0.00058911,0.0,0 STARLINK-3807,1 52353U 22045Y   22224.91668981 -.00058911  00000-0 -37111-2 0  9992,2 52353  53.2191 296.4726 0001945  37.4161  76.9766 15.08866398  1307,6917.8,95.436,541.01,538.319,0.0
52353.0,STARLINK-3807,PAYLOAD,2022-08-13 06:00:02,15.088370199999998,0.0001927,53.2191,294.976,42.0593,83.9318,0.00018974,2.733e-05,0.0,0 STARLINK-3807,1 52353U 22045Y   22225.25002315  .00002733  00000-0  18974-3 0  9999,2 52353  53.2191 294.9760 0001927  42.0593  83.9318 15.08837020 18858,6917.889,95.438,541.0880000000002,538.4209999999998,0.0
52353.0,STARLINK-3807,PAYLOAD,2022-08-13 14:00:01,15.08810024,0.0002121999999999,53.2187,293.4815,37.6931,99.8105,0.0020664,0.00032725,0.0,0 STARLINK-3807,1 52353U 22045Y   22225.58334491  .00032725  00000-0  20664-2 0  9990,2 52353  53.2187 293.4815 0002122  37.6931  99.8105 15.08810024  1309,6917.972,95.439,541.305,538.369,0.0
52353.0,STARLINK-3807,PAYLOAD,2022-08-13 22:00:00,15.08835472,0.0001968,53.2183,291.9838,40.1993,108.8784,-0.00066216,-0.0001081,0.0,0 STARLINK-3807,1 52353U 22045Y   22225.91667824 -.00010810  00000-0 -66216-3 0  9993,2 52353  53.2183 291.9838 0001968  40.1993 108.8784 15.08835472  1305,6917.894,95.438,541.121,538.398,0.0
52353.0,STARLINK-3807,PAYLOAD,2022-08-14 14:00:01,15.08822032,0.0002147,53.2179,288.9926,38.5986,133.6684,0.0025654,0.00040757,0.0,0 STARLINK-3807,1 52353U 22045Y   22226.58334491  .00040757  00000-0  25654-2 0  9999,2 52353  53.2179 288.9926 0002147  38.5986 133.6684 15.08822032 19051,6917.935,95.439,541.286,538.315,0.0
52353.0,STARLINK-3807,PAYLOAD,2022-08-14 22:00:00,15.08848334,0.0001983,53.2176,287.4946,41.1114,142.7502,-0.00014857,-2.653e-05,0.0,0 STARLINK-3807,1 52353U 22045Y   22226.91667824 -.00002653  00000-0 -14857-3 0  9994,2 52353  53.2176 287.4946 0001983  41.1114 142.7502 15.08848334  1306,6917.855,95.437,541.092,538.3480000000002,0.0
52353.0,STARLINK-3807,PAYLOAD,2022-08-15 06:00:00,15.088695199999998,0.0001958,53.2176,285.9984,43.1141,152.3446,-0.0035316,-0.00056102,0.0,0 STARLINK-3807,1 52353U 22045Y   22227.25001157 -.00056102  00000-0 -35316-2 0  9993,2 52353  53.2176 285.9984 0001958  43.1141 152.3446 15.08869520 19151,6917.79,95.436,541.01,538.3009999999998,0.0
52353.0,STARLINK-3807,PAYLOAD,2022-08-15 14:00:01,15.088047400000002,0.000213,53.2174,284.5034,36.8403,170.2289,0.002836,0.00045093,0.0,0 STARLINK-3807,1 52353U 22045Y   22227.58334491  .00045093  00000-0  28360-2 0  9995,2 52353  53.2174 284.5034 0002130  36.8403 170.2289 15.08804740  1308,6917.988,95.44,541.327,538.38,0.0
52353.0,STARLINK-3807,PAYLOAD,2022-08-15 22:00:00,15.08828852,0.0001976,53.2173,283.0052,39.427,179.2199,0.00027421,4.077e-05,0.0,0 STARLINK-3807,1 52353U 22045Y   22227.91667824  .00004077  00000-0  27421-3 0  9996,2 52353  53.2173 283.0052 0001976  39.4270 179.2199 15.08828852  1308,6917.9140000000025,95.438,541.146,538.4119999999998,0.0
52353.0,STARLINK-3807,PAYLOAD,2022-08-16 00:00:00,15.08810002,0.0001950999999999,53.2171,282.6309,40.8481,270.7013,0.0028734999999999,0.00045703,0.0,0 STARLINK-3807,1 52353U 22045Y   22228.00001157  .00045703  00000-0  28735-2 0  9997,2 52353  53.2171 282.6309 0001951  40.8481 270.7013 15.08810002 19263,6917.972,95.439,541.187,538.487,0.0
52353.0,STARLINK-3807,PAYLOAD,2022-08-16 14:00:01,15.08817319,0.0002222,53.2173,280.0141,37.4051,204.4267,0.0030464,0.0004849999999999,0.0,0 STARLINK-3807,1 52353U 22045Y   22228.58334491  .00048500  00000-0  30464-2 0  9990,2 52353  53.2173 280.0141 0002222  37.4051 204.4267 15.08817319  1307,6917.95,95.439,541.352,538.278,0.0
52353.0,STARLINK-3807,PAYLOAD,2022-08-16 22:00:00,15.0884106,0.0002049,53.2174,278.5158,39.6292,213.7977,0.00031241,4.688e-05,0.0,0 STARLINK-3807,1 52353U 22045Y   22228.91667824  .00004688  00000-0  31241-3 0  9990,2 52353  53.2174 278.5158 0002049  39.6292 213.7977 15.08841060  1307,6917.877,95.437,541.16,538.325,0.0
52353.0,STARLINK-3807,PAYLOAD,2022-08-17 06:00:02,15.08857772,0.0002073999999999,53.2175,277.0197,40.6276,224.4577,-0.0030813,-0.00049019,0.0,0 STARLINK-3807,1 52353U 22045Y   22229.25002315 -.00049019  00000-0 -30813-2 0  9998,2 52353  53.2175 277.0197 0002074  40.6276 224.4577 15.08857772 19454,6917.826,95.436,541.126,538.256,0.0
52353.0,STARLINK-3807,PAYLOAD,2022-08-17 16:00:00,15.08829081,0.0002229,53.2174,275.1502,34.9857,334.523,0.00062441,9.66e-05,0.0,0 STARLINK-3807,1 52353U 22045Y   22229.66667824  .00009660  00000-0  62441-3 0  9994,2 52353  53.2174 275.1502 0002229  34.9857 334.5230 15.08829081  1301,6917.9140000000025,95.438,541.321,538.237,0.0
52353.0,STARLINK-3807,PAYLOAD,2022-08-18 14:00:01,15.0882791,0.0002331999999999,53.218,271.0354,36.4472,274.9453,0.0029564,0.00047063,0.0,0 STARLINK-3807,1 52353U 22045Y   22230.58334491  .00047063  00000-0  29564-2 0  9995,2 52353  53.2180 271.0354 0002332  36.4472 274.9453 15.08827910  1306,6917.917,95.438,541.396,538.169,0.0
52353.0,STARLINK-3807,PAYLOAD,2022-08-18 22:00:00,15.08845349,0.0002126,53.2183,269.5374,39.4339,283.5653,0.00056185,8.666e-05,0.0,0 STARLINK-3807,1 52353U 22045Y   22230.91667824  .00008666  00000-0  56185-3 0  9997,2 52353  53.2183 269.5374 0002126  39.4339 283.5653 15.08845349  1303,6917.864000000001,95.437,541.2,538.258,0.0
52353.0,STARLINK-3807,PAYLOAD,2022-08-19 14:00:01,15.08825914,0.0002288,53.2182,266.5463,34.3443,311.858,0.0016803,0.00026545,0.0,0 STARLINK-3807,1 52353U 22045Y   22231.58334491  .00026545  00000-0  16803-2 0  9990,2 52353  53.2182 266.5463 0002288  34.3443 311.8580 15.08825914  1307,6917.9230000000025,95.438,541.371,538.206,0.0
52353.0,STARLINK-3807,PAYLOAD,2022-08-19 22:00:00,15.08810929,0.0002044999999999,53.2184,265.0483,37.2526,320.5494,0.00075145,0.00011682,0.0,0 STARLINK-3807,1 52353U 22045Y   22231.91667824  .00011682  00000-0  75145-3 0  9997,2 52353  53.2184 265.0483 0002045  37.2526 320.5494 15.08810929  1301,6917.969,95.439,541.249,538.42,0.0
52353.0,STARLINK-3807,PAYLOAD,2022-08-20 14:00:01,15.088091199999996,0.0002261,53.2181,262.0575,33.305,347.6328,0.0018456,0.00029182,0.0,0 STARLINK-3807,1 52353U 22045Y   22232.58334491  .00029182  00000-0  18456-2 0  9997,2 52353  53.2181 262.0575 0002261  33.3050 347.6328 15.08809120  1303,6917.975,95.44,541.404,538.276,0.0
52353.0,STARLINK-3807,PAYLOAD,2022-08-20 22:00:00,15.08801367,0.0002032,53.2182,260.5596,37.7345,354.7823,0.0026515999999999,0.0004212,0.0,0 STARLINK-3807,1 52353U 22045Y   22232.91667824  .00042120  00000-0  26516-2 0  9996,2 52353  53.2182 260.5596 0002032  37.7345 354.7823 15.08801367  1305,6917.998000000001,95.44,541.269,538.4580000000002,0.0
